[{"OBJECT_NAME":"STARLINK-30162","OBJECT_ID":"2023-105S","EPOCH":"2026-03-09T22:00:01.999584","MEAN_MOTION":15.15680844,"ECCENTRICITY":0.00014722,"INCLINATION":43.0007,"RA_OF_ASC_NODE":246.8903,"ARG_OF_PERICENTER":274.6501,"MEAN_ANOMALY":98.8321,"EPHEMERIS_TYPE":0,"CLASSIFICATION_TYPE":"U","NORAD_CAT_ID":57446,"ELEMENT_SET_NO":999,"REV_AT_EPOCH":578,"BSTAR":0.034975087,"MEAN_MOTION_DOT":0.00729589,"MEAN_MOTION_DDOT":0},{"OBJECT_NAME":"OBJECT K","OBJECT_ID":"2021-102K","EPOCH":"2026-03-09T15:22:06.576960","MEAN_MOTION":15.21189011,"ECCENTRICITY":0.0018364,"INCLINATION":97.3391,"RA_OF_ASC_NODE":112.3952,"ARG_OF_PERICENTER":201.1729,"MEAN_ANOMALY":158.8749,"EPHEMERIS_TYPE":0,"CLASSIFICATION_TYPE":"U","NORAD_CAT_ID":49404,"ELEMENT_SET_NO":999,"REV_AT_EPOCH":23874,"BSTAR":0.00026722,"MEAN_MOTION_DOT":5.916e-5,"MEAN_MOTION_DDOT":0}]
